#aV2019  6  2  0  0  0.00000000     288 DD+AD WGS84 FIT  NGA
## 2056      0.00000000   300.00000000 58636 0.0000000000000
+   31     1  2  3  5  6  7  8  9 10 11 12 13 14 15 16 17 18
+         19 20 21 22 23 24 25 26 27 28 29 30 31 32  0  0  0
+          0  0  0  0  0  0  0  0  0  0  0  0  0  0  0  0  0
+          0  0  0  0  0  0  0  0  0  0  0  0  0  0  0  0  0
+          0  0  0  0  0  0  0  0  0  0  0  0  0  0  0  0  0
++         2  2  2  2  2  2  2  2  2  2  2  2  2  2  2  2  2
++         2  2  2  2  2  2  2  2  2  2  2  2  2  2  0  0  0
++         0  0  0  0  0  0  0  0  0  0  0  0  0  0  0  0  0
++         0  0  0  0  0  0  0  0  0  0  0  0  0  0  0  0  0
++         0  0  0  0  0  0  0  0  0  0  0  0  0  0  0  0  0
%c cc cc ccc ccc cccc cccc cccc cccc ccccc ccccc ccccc ccccc
%c cc cc ccc ccc cccc cccc cccc cccc ccccc ccccc ccccc ccccc
%f  0.0000000  0.000000000  0.00000000000  0.000000000000000
%f  0.0000000  0.000000000  0.00000000000  0.000000000000000
%i    0    0    0    0      0      0      0      0         0
%i    0    0    0    0      0      0      0      0         0
/*      NGA, ST. LOUIS,MO.                                  
/*   EPHEMERIS COMPUTED FROM 2 DAYS OF DATA                 
/*   EPOCHA v5 SMOOTHER                                     
/*   G1762 IERS2010 SATAF SATAPC                            
*  2019  6  2  3 45  0.00000000
P  1 -13564.892774  22432.416247  -3152.915525    -30.753099                    
V  1  -4312.245507   1580.348968  31973.161916     -0.093436                    
P  2  18786.876252  -9262.717333 -15636.703622   -227.528350                    
V  2  -9143.805415  19097.870844 -21627.525495     -0.090218                    
P  3 -11031.872991  13130.483267 -20298.559381    186.786398                    
V  3 -25483.403996  -3518.467658  11682.106522     -0.009708                    
P  5  25745.195103  -2718.439344   6287.034756      0.716026                    
V  5   7884.534622   3446.710586 -30011.156551     -0.001421                    
P  6  14349.923903   5164.563621 -21705.101948    189.401262                    
V  6 -15692.600789  22723.584826  -4923.848114     -0.103722                    
P  7  -2419.597201  21528.673153  15295.818096    -36.170735                    
V  7 -13248.682822  14051.047907 -22725.478704     -0.075873                    
P  8  -9882.466483  12829.024037  21043.572898   -145.829565                    
V  8 -12107.340980 -23769.414472   9019.666955     -0.014323                    
P  9   7306.972123  24899.464251  -5675.119319    399.863255                    
V  9  -5766.540915  -5202.120741 -30466.246496     -0.074204                    
P 10 -19843.588843 -11427.208256  13689.110263     28.812668                    
V 10  17306.512715   -389.510992  24683.441509     -0.114192                    
P 11  -9144.783802  24157.085005   6192.896124   -593.798790                    
V 11  -2547.689910  -9123.946220  29063.591141      0.083648                    
P 12  13265.586667 -11426.511155 -20134.865194    236.992346                    
V 12  24600.057323   4995.255380  13682.200219     -0.034952                    
P 13  14704.891297  -3215.875639  21775.345533    -60.977659                    
V 13   8251.096147  26638.970295  -1583.350493      0.017283                    
P 14 -16615.095569 -12861.029177 -16035.267534    -77.907975                    
V 14  -5368.987070 -20276.431862  21215.420396      0.016644                    
P 15   8775.419658 -14715.839385  19941.325645   -309.533856                    
V 15  14311.504101  21913.316281  10134.306010      0.022493                    
P 16 -25775.709758     62.846267   7094.951595    -44.767010                    
V 16  -8680.381827  -3319.058347 -30265.205173     -0.029978                    
P 17  14550.254076  19999.107123  -9396.623860     64.735116                    
V 17   2770.506314  12298.047307  29124.172230      0.064036                    
P 18 -17109.759739  19265.097769   5657.321001     58.469243                    
V 18   1622.504500  -8281.316340  30595.661598      0.032164                    
P 19  16143.811609  13700.021688 -16292.454584   -311.698788                    
V 19   5126.618204  19494.579140  21952.337662      0.046478                    
P 20 -11373.685533 -14128.812778  19347.508542    525.121511                    
V 20  24805.714214  -2138.661316  12798.675738      0.002456                    
P 21  -3463.847442 -19501.055673  18567.213167   -181.154797                    
V 21  12889.184656 -17835.022978 -16918.168431      0.073247                    
P 22 -18162.859439  11222.900567 -15516.930221   -710.589266                    
V 22 -20187.396106  -3219.288608  21066.378333     -0.059640                    
P 23  -2633.752260  20832.790630 -15680.151111   -183.612363                    
V 23 -11348.752166 -17563.658458 -21380.389791      0.016749                    
P 24  14514.231545 -22016.886886    538.601506    -66.905646                    
V 24   2730.429220   2780.977064  31469.427475     -0.005405                    
P 25  -1089.649699 -15230.240331 -21961.640806   -761.999655                    
V 25  27206.813218   2577.587780  -2921.862352     -0.034710                    
P 26 -26065.081695  -4346.427427  -3522.792726    216.573793                    
V 26   4625.138483  -2610.139196 -31010.346593      0.095435                    
P 27 -15763.731262     32.857031  21316.644446   -147.045384                    
V 27 -10951.118248 -24918.258906  -7725.834247     -0.097873                    
P 28  18074.225928  13372.070977  14668.076279    767.698395                    
V 28 -17557.886968  -1768.951530  24350.747106     -0.002954                    
P 29  -2556.177583 -24649.534494  -9583.191143    186.808382                    
V 29   5994.568615  10656.144383 -29118.841158     -0.094833                    
P 30   6854.018124  15452.605236  20467.212984   -115.953132                    
V 30 -16902.492964  19856.905965  -9535.243757     -0.072174                    
P 31 -15733.071401  -3720.830716 -21146.990526     33.993508                    
V 31  15774.283024 -21633.745800  -7494.685034     -0.026676                    
P 32 -16599.485390 -17804.698809 -10705.039852    -61.394634                    
V 32  -3486.074829 -13433.384392  27472.776607      0.164233                    
EOF
